STARLINK-31285          
1 59244U 24049P   26067.60574744 -.00002503  00000+0 -81423-4 0  9994
2 59244  42.9972 149.3678 0001892 158.6691 201.4240 15.27592029112237
STRIX-4                 
1 60352U 24137A   26068.65404516  .00020530  00000+0  71820-3 0  9996
2 60352  43.0134 129.8162 0016840   5.2738 354.8289 15.29026223 88766
